{"type": "FeatureCollection", "features": [ {"type": "Feature", "properties": {"norad_id": 29973, "name": "FENGYUN 1C DEB", "group": "fengyun-1c-debris", "lat": -19.270957825246935, "lon": 177.4561431859335, "alt_km": 874.6942856229607, "timestamp": "2025-12-26T09:30:53.910877+00:00", "meta": {"OBJECT_NAME": "FENGYUN 1C DEB", "OBJECT_ID": "1999-025KX", "EPOCH": "2025-12-26T00:19:34.925088", "MEAN_MOTION": 14.06563787, "ECCENTRICITY": 0.0059616, "INCLINATION": 98.8428, "RA_OF_ASC_NODE": 0.202, "ARG_OF_PERICENTER": 112.1037, "MEAN_ANOMALY": 309.0315, "EPHEMERIS_TYPE": 0, "CLASSIFICATION_TYPE": "U", "NORAD_CAT_ID": 29973, "ELEMENT_SET_NO": 999, "REV_AT_EPOCH": 96905, "BSTAR": 0.00072532, "MEAN_MOTION_DOT": 1.178e-05, "MEAN_MOTION_DDOT": 0}, "tle": {"line1": "1 29973U 99025KX  25360.01359867  .00001178  00000+0  72532-3 0  9998", "line2": "2 29973  98.8428   0.2020 0059616 112.1037 309.0315 14.06563787969054"}}, "geometry": {"type": "Point", "coordinates": [177.4561431859335, -19.270957825246935]}}, {"type": "Feature", "properties": {"norad_id": 29974, "name": "FENGYUN 1C DEB", "group": "fengyun-1c-debris", "lat": 70.9983470964995, "lon": -68.43363236533469, "alt_km": 820.859130306595, "timestamp": "2025-12-26T09:30:53.910886+00:00", "meta": {"OBJECT_NAME": "FENGYUN 1C DEB", "OBJECT_ID": "1999-025KY", "EPOCH": "2025-12-25T18:19:09.435360", "MEAN_MOTION": 14.14899143, "ECCENTRICITY": 0.00458885, "INCLINATION": 98.8931, "RA_OF_ASC_NODE": 83.8916, "ARG_OF_PERICENTER": 45.0946, "MEAN_ANOMALY": 78.0033, "EPHEMERIS_TYPE": 0, "CLASSIFICATION_TYPE": "U", "NORAD_CAT_ID": 29974, "ELEMENT_SET_NO": 999, "REV_AT_EPOCH": 97109, "BSTAR": 0.0010376038, "MEAN_MOTION_DOT": 1.981e-05, "MEAN_MOTION_DDOT": 0}, "tle": {"line1": "1 29974U 99025KY  25359.76330365  .00001981  00000+0  10376-2 0  9990", "line2": "2 29974  98.8931  83.8916 0045888  45.0946  78.0033 14.14899143971098"}}, "geometry": {"type": "Point", "coordinates": [-68.43363236533469, 70.9983470964995]}}, {"type": "Feature", "properties": {"norad_id": 29975, "name": "FENGYUN 1C DEB", "group": "fengyun-1c-debris", "lat": -3.397579476431151, "lon": 42.25629291221177, "alt_km": 826.497850796597, "timestamp": "2025-12-26T09:30:53.910896+00:00", "meta": {"OBJECT_NAME": "FENGYUN 1C DEB", "OBJECT_ID": "1999-025KZ", "EPOCH": "2025-12-26T02:46:03.088992", "MEAN_MOTION": 13.9803001, "ECCENTRICITY": 0.011305, "INCLINATION": 99.3375, "RA_OF_ASC_NODE": 41.4107, "ARG_OF_PERICENTER": 337.3924, "MEAN_ANOMALY": 44.6365, "EPHEMERIS_TYPE": 0, "CLASSIFICATION_TYPE": "U", "NORAD_CAT_ID": 29975, "ELEMENT_SET_NO": 999, "REV_AT_EPOCH": 96624, "BSTAR": 0.00021706, "MEAN_MOTION_DOT": 2.79e-06, "MEAN_MOTION_DDOT": 0}, "tle": {"line1": "1 29975U 99025KZ  25360.11531353  .00000279  00000+0  21706-3 0  9991", "line2": "2 29975  99.3375  41.4107 0113050 337.3924  44.6365 13.98030010966248"}}, "geometry": {"type": "Point", "coordinates": [42.25629291221177, -3.397579476431151]}}, {"type": "Feature", "properties": {"norad_id": 29976, "name": "FENGYUN 1C DEB", "group": "fengyun-1c-debris", "lat": 4.447161907458867, "lon": 178.03852490582352, "alt_km": 726.8936524780393, "timestamp": "2025-12-26T09:30:53.910907+00:00", "meta": {"OBJECT_NAME": "FENGYUN 1C DEB", "OBJECT_ID": "1999-025LA", "EPOCH": "2025-12-25T22:41:49.955712", "MEAN_MOTION": 13.98128587, "ECCENTRICITY": 0.0267599, "INCLINATION": 98.9201, "RA_OF_ASC_NODE": 356.9, "ARG_OF_PERICENTER": 202.9066, "MEAN_ANOMALY": 226.3598, "EPHEMERIS_TYPE": 0, "CLASSIFICATION_TYPE": "U", "NORAD_CAT_ID": 29976, "ELEMENT_SET_NO": 999, "REV_AT_EPOCH": 96521, "BSTAR": 0.00043721, "MEAN_MOTION_DOT": 8.01e-06, "MEAN_MOTION_DDOT": 0}, "tle": {"line1": "1 29976U 99025LA  25359.94571708  .00000801  00000+0  43721-3 0  9991", "line2": "2 29976  98.9201 356.9000 0267599 202.9066 226.3598 13.98128587965210"}}, "geometry": {"type": "Point", "coordinates": [178.03852490582352, 4.447161907458867]}}, {"type": "Feature", "properties": {"norad_id": 29977, "name": "FENGYUN 1C DEB", "group": "fengyun-1c-debris", "lat": 81.59692265425691, "lon": 130.51421605958623, "alt_km": 925.216737175595, "timestamp": "2025-12-26T09:30:53.910918+00:00", "meta": {"OBJECT_NAME": "FENGYUN 1C DEB", "OBJECT_ID": "1999-025LB", "EPOCH": "2025-12-15T02:05:24.079200", "MEAN_MOTION": 14.0509794, "ECCENTRICITY": 0.0128352, "INCLINATION": 98.3968, "RA_OF_ASC_NODE": 210.9629, "ARG_OF_PERICENTER": 250.2626, "MEAN_ANOMALY": 265.3537, "EPHEMERIS_TYPE": 0, "CLASSIFICATION_TYPE": "U", "NORAD_CAT_ID": 29977, "ELEMENT_SET_NO": 999, "REV_AT_EPOCH": 96393, "BSTAR": 0.001211704, "MEAN_MOTION_DOT": 2.064e-05, "MEAN_MOTION_DDOT": 0}, "tle": {"line1": "1 29977U 99025LB  25349.08708425  .00002064  00000+0  12117-2 0  9991", "line2": "2 29977  98.3968 210.9629 0128352 250.2626 265.3537 14.05097940963932"}}, "geometry": {"type": "Point", "coordinates": [130.51421605958623, 81.59692265425691]}}, {"type": "Feature", "properties": {"norad_id": 29978, "name": "FENGYUN 1C DEB", "group": "fengyun-1c-debris", "lat": 79.37405257740163, "lon": -7.638443421091008, "alt_km": 880.6579509961784, "timestamp": "2025-12-26T09:30:53.910928+00:00", "meta": {"OBJECT_NAME": "FENGYUN 1C DEB", "OBJECT_ID": "1999-025LC", "EPOCH": "2025-12-26T02:22:32.302272", "MEAN_MOTION": 13.95912611, "ECCENTRICITY": 0.0076268, "INCLINATION": 99.0596, "RA_OF_ASC_NODE": 50.3263, "ARG_OF_PERICENTER": 15.8591, "MEAN_ANOMALY": 13.699, "EPHEMERIS_TYPE": 0, "CLASSIFICATION_TYPE": "U", "NORAD_CAT_ID": 29978, "ELEMENT_SET_NO": 999, "REV_AT_EPOCH": 96503, "BSTAR": 7.9373e-05, "MEAN_MOTION_DOT": 6.7e-07, "MEAN_MOTION_DDOT": 0}, "tle": {"line1": "1 29978U 99025LC  25360.09898498  .00000067  00000+0  79373-4 0  9996", "line2": "2 29978  99.0596  50.3263 0076268  15.8591  13.6990 13.95912611965031"}}, "geometry": {"type": "Point", "coordinates": [-7.638443421091008, 79.37405257740163]}}, {"type": "Feature", "properties": {"norad_id": 29979, "name": "FENGYUN 1C DEB", "group": "fengyun-1c-debris", "lat": 44.40856153556114, "lon": -148.71131932292712, "alt_km": 725.325082074778, "timestamp": "2025-12-26T09:30:53.910938+00:00", "meta": {"OBJECT_NAME": "FENGYUN 1C DEB", "OBJECT_ID": "1999-025LD", "EPOCH": "2025-12-26T00:36:35.909568", "MEAN_MOTION": 14.25990149, "ECCENTRICITY": 0.0108079, "INCLINATION": 98.3694, "RA_OF_ASC_NODE": 22.6428, "ARG_OF_PERICENTER": 124.1667, "MEAN_ANOMALY": 266.8101, "EPHEMERIS_TYPE": 0, "CLASSIFICATION_TYPE": "U", "NORAD_CAT_ID": 29979, "ELEMENT_SET_NO": 999, "REV_AT_EPOCH": 98263, "BSTAR": 0.00037314, "MEAN_MOTION_DOT": 9.06e-06, "MEAN_MOTION_DDOT": 0}, "tle": {"line1": "1 29979U 99025LD  25360.02541562  .00000906  00000+0  37314-3 0  9997", "line2": "2 29979  98.3694  22.6428 0108079 124.1667 266.8101 14.25990149982639"}}, "geometry": {"type": "Point", "coordinates": [-148.71131932292712, 44.40856153556114]}}, {"type": "Feature", "properties": {"norad_id": 29980, "name": "FENGYUN 1C DEB", "group": "fengyun-1c-debris", "lat": 1.228576366940885, "lon": -11.009608749026146, "alt_km": 819.9137178135443, "timestamp": "2025-12-26T09:30:53.910948+00:00", "meta": {"OBJECT_NAME": "FENGYUN 1C DEB", "OBJECT_ID": "1999-025LE", "EPOCH": "2025-12-26T02:22:22.838016", "MEAN_MOTION": 14.06324139, "ECCENTRICITY": 0.0087256, "INCLINATION": 98.552, "RA_OF_ASC_NODE": 168.5243, "ARG_OF_PERICENTER": 209.7215, "MEAN_ANOMALY": 263.674, "EPHEMERIS_TYPE": 0, "CLASSIFICATION_TYPE": "U", "NORAD_CAT_ID": 29980, "ELEMENT_SET_NO": 999, "REV_AT_EPOCH": 97180, "BSTAR": 7.3551e-05, "MEAN_MOTION_DOT": 8.4e-07, "MEAN_MOTION_DDOT": 0}, "tle": {"line1": "1 29980U 99025LE  25360.09887544  .00000084  00000+0  73551-4 0  9990", "line2": "2 29980  98.5520 168.5243 0087256 209.7215 263.6740 14.06324139971808"}}, "geometry": {"type": "Point", "coordinates": [-11.009608749026146, 1.228576366940885]}}, {"type": "Feature", "properties": {"norad_id": 29982, "name": "FENGYUN 1C DEB", "group": "fengyun-1c-debris", "lat": -36.68314802397593, "lon": -169.24703109988613, "alt_km": 655.7534166142514, "timestamp": "2025-12-26T09:30:53.910959+00:00", "meta": {"OBJECT_NAME": "FENGYUN 1C DEB", "OBJECT_ID": "1999-025LG", "EPOCH": "2025-12-26T02:02:03.449760", "MEAN_MOTION": 14.66978066, "ECCENTRICITY": 0.0121642, "INCLINATION": 99.4019, "RA_OF_ASC_NODE": 183.3059, "ARG_OF_PERICENTER": 247.4762, "MEAN_ANOMALY": 228.8542, "EPHEMERIS_TYPE": 0, "CLASSIFICATION_TYPE": "U", "NORAD_CAT_ID": 29982, "ELEMENT_SET_NO": 999, "REV_AT_EPOCH": 479, "BSTAR": 0.00056977, "MEAN_MOTION_DOT": 3.495e-05, "MEAN_MOTION_DDOT": 0}, "tle": {"line1": "1 29982U 99025LG  25360.08476215  .00003495  00000+0  56977-3 0  9991", "line2": "2 29982  99.4019 183.3059 0121642 247.4762 228.8542 14.66978066  4795"}}, "geometry": {"type": "Point", "coordinates": [-169.24703109988613, -36.68314802397593]}}, {"type": "Feature", "properties": {"norad_id": 29985, "name": "FENGYUN 1C DEB", "group": "fengyun-1c-debris", "lat": -43.92740934139802, "lon": 23.519464057701366, "alt_km": 882.0305303788246, "timestamp": "2025-12-26T09:30:53.910969+00:00", "meta": {"OBJECT_NAME": "FENGYUN 1C DEB", "OBJECT_ID": "1999-025LK", "EPOCH": "2025-12-26T01:31:42.607776", "MEAN_MOTION": 14.10326365, "ECCENTRICITY": 0.0028787, "INCLINATION": 98.71, "RA_OF_ASC_NODE": 14.7057, "ARG_OF_PERICENTER": 170.9897, "MEAN_ANOMALY": 255.7498, "EPHEMERIS_TYPE": 0, "CLASSIFICATION_TYPE": "U", "NORAD_CAT_ID": 29985, "ELEMENT_SET_NO": 999, "REV_AT_EPOCH": 97536, "BSTAR": 8.4264e-05, "MEAN_MOTION_DOT": 1.08e-06, "MEAN_MOTION_DDOT": 0}, "tle": {"line1": "1 29985U 99025LK  25360.06368759  .00000108  00000+0  84264-4 0  9994", "line2": "2 29985  98.7100  14.7057 0028787 170.9897 255.7498 14.10326365975368"}}, "geometry": {"type": "Point", "coordinates": [23.519464057701366, -43.92740934139802]}}]}